YAMAL 401               
1 40345U 14082A   26176.40016905  .00000000  00000+0  00000+0 0  9996
2 40345   0.0163  24.1404 0000995  89.9826  33.4324  1.00268560 42001
ASTRA 2G                
1 40364U 14089A   26176.53052660  .00000160  00000+0  00000+0 0  9993
2 40364   0.0500  19.7496 0004874  52.5582  60.5181  1.00272682 42050
FENGYUN 2G              
1 40367U 14090A   26176.16919925 -.00000297  00000+0  00000+0 0  9995
2 40367   5.6596  72.7239 0003592 151.5998 209.5585  1.00269529 42082
MUOS-3                  
1 40374U 15002A   26176.37935697 -.00000123  00000+0  00000+0 0  9992
2 40374   4.5359  43.5548 0052501 177.8156 173.2680  1.00270990 41665
INMARSAT 5-F2           
1 40384U 15005A   26176.37147025 -.00000276  00000+0  00000+0 0  9995
2 40384   0.0181  10.2642 0000321 353.1584 348.8042  1.00272845 41071
ABS-3A                  
1 40424U 15010A   26176.38178365  .00000000  00000+0  00000+0 0  9992
2 40424   0.0418  53.0603 0001755 356.5554 358.3554  1.00270912 41456
EUTELSAT 115 WEST B     
1 40425U 15010B   26176.50220031 -.00000015  00000+0  00000+0 0  9992
2 40425   0.0131 149.0711 0000251 104.5713  85.8918  1.00274275 41477
EXPRESS-AM7             
1 40505U 15012A   26176.53286660  .00000000  00000+0  00000+0 0  9999
2 40505   0.0254 357.8742 0003498 109.5393  38.1191  1.00275830 41090
BEIDOU-3S IGSO-1S       
1 40549U 15019A   26175.80819344 -.00000178  00000+0  00000+0 0  9991
2 40549  49.1794 295.3695 0038917 191.3782 167.8940  1.00249638 41144
THOR 7                  
1 40613U 15022A   26176.31096958  .00000001  00000+0  00000+0 0  9996
2 40613   0.0134  44.1070 0002627  44.8873 295.7425  1.00271398 40897
TURKMENALEM52E/MONACOSAT
1 40617U 15023A   26176.39261703  .00000113  00000+0  00000+0 0  9995
2 40617   0.0190  64.6510 0003078  26.1749  16.0949  1.00275394 40935
DIRECTV 15              
1 40663U 15026A   26176.50462699 -.00000092  00000+0  00000+0 0  9996
2 40663   0.0177  60.3943 0000530 338.1020 313.9308  1.00270387 40544
SKY MEXICO-1            
1 40664U 15026B   26176.50939368  .00000000  00000+0  00000+0 0  9997
2 40664   0.0256 359.1063 0002676 115.2462 263.8772  1.00268983 40538
METEOSAT-11 (MSG-4)     
1 40732U 15034A   26176.31296293  .00000069  00000+0  00000+0 0  9999
2 40732   3.2209  71.0582 0002284 347.1875 337.3344  1.00265611  7295
STAR ONE C4             
1 40733U 15034B   26176.51112703 -.00000255  00000+0  00000+0 0  9993
2 40733   0.0270 326.2325 0002173 100.4190 321.0141  1.00271419 40099
WGS F7 (USA 263)        
1 40746U 15036A   26175.81822623  .00000000  00000+0  00000+0 0  9997
2 40746   0.0408  52.4573 0000393 128.4598 201.5787  1.00272289 39949
INTELSAT 34 (IS-34)     
1 40874U 15039A   26176.37138359 -.00000275  00000+0  00000+0 0  9995
2 40874   0.0077 354.3653 0000477  26.9885 330.3532  1.00270119 39714
EUTELSAT 8 WEST B       
1 40875U 15039B   26176.38083030 -.00000056  00000+0  00000+0 0  9999
2 40875   0.0627   4.1046 0003777  86.4374 312.0769  1.00271655 39739
GSAT-6                  
1 40880U 15041A   26176.54135997 -.00000151  00000+0  00000+0 0  9992
2 40880   1.9401  82.4914 0003140   5.2490 103.3619  1.00270887 39685
INMARSAT 5-F3           
1 40882U 15042A   26176.57014865  .00000060  00000+0  00000+0 0  9996
2 40882   0.0188  23.8627 0000489 108.1069 166.5837  1.00268087 39656
MUOS-4                  
1 40887U 15044A   26176.53997330 -.00000086  00000+0  00000+0 0  9995
2 40887   4.3455  42.2994 0057867   2.8629 137.8848  1.00272277 39649
TJS-1                   
1 40892U 15046A   26176.53378139 -.00000146  00000+0  00000+0 0  9990
2 40892   0.3452  84.9276 0005892   4.2516 171.6869  1.00270840 39650
EXPRESS-AM8             
1 40895U 15048A   26176.37961697 -.00000102  00000+0  00000+0 0  9996
2 40895   0.0129 301.4202 0000454  99.8902 354.8682  1.00271642 39429
BEIDOU-3S IGSO-2S       
1 40938U 15053A   26175.69365485 -.00000135  00000+0  00000+0 0  9993
2 40938  49.2082 258.6911 0065518 192.8467 165.7674  1.00257917 39421
SKY MUSTER 1 (NBN1A)    
1 40940U 15054A   26176.55273734  .00000000  00000+0  00000+0 0  9998
2 40940   0.0231 349.6606 0002052 100.0271 163.2387  1.00270060 39344
ARSAT 2                 
1 40941U 15054B   26176.50896035 -.00000215  00000+0  00000+0 0  9998
2 40941   0.0146 328.1644 0002136 116.1270 291.5797  1.00271714 39385
MORELOS 3               
1 40946U 15056A   26176.50254698 -.00000036  00000+0  00000+0 0  9999
2 40946   3.1936  15.2821 0000685   3.8216 322.3507  1.00271858 39360
APSTAR-9                
1 40982U 15059A   26176.57454530 -.00000256  00000+0  00000+0 0  9990
2 40982   0.0347 302.2734 0002815 234.9102  85.3413  1.00269428 39207
TURKSAT 4B              
1 40984U 15060A   26176.53485994  .00000125  00000+0  00000+0 0  9992
2 40984   0.0169  27.7610 0002467  62.1954  66.2058  1.00271692 39188
ZHONGXING-2C            
1 41021U 15063A   26175.76129046 -.00000314  00000+0  00000+0 0  9996
2 41021   0.2938  89.4168 0008017  95.8408 105.1164  1.00268247 39053
GSAT-15                 
1 41028U 15065A   26176.47128407 -.00000248  00000+0  00000+0 0  9990
2 41028   0.0510 263.7900 0004591 171.6597 101.3449  1.00271503 38883
BADR-7 (ARABSAT-6B)     
1 41029U 15065B   26176.53009325  .00000155  00000+0  00000+0 0  9991
2 41029   0.0381 215.0630 0003879 340.8391 294.5679  1.00272456 38855
