OBJECT_NAME,OBJECT_ID,EPOCH,MEAN_MOTION,ECCENTRICITY,INCLINATION,RA_OF_ASC_NODE,ARG_OF_PERICENTER,MEAN_ANOMALY,EPHEMERIS_TYPE,CLASSIFICATION_TYPE,NORAD_CAT_ID,ELEMENT_SET_NO,REV_AT_EPOCH,BSTAR,MEAN_MOTION_DOT,MEAN_MOTION_DDOT
YAMAL 401,2014-082A,2026-06-25T09:36:14.605920,1.00268560,.00009955,0.0163,24.1404,89.9826,33.4324,0,U,40345,999,4200,0,0,0
ASTRA 2G,2014-089A,2026-06-25T12:43:57.498240,1.00272682,.00048746,0.0500,19.7496,52.5582,60.5181,0,U,40364,999,4205,0,.16E-5,0
FENGYUN 2G,2014-090A,2026-06-25T04:03:38.815200,1.00269529,.00035922,5.6596,72.7239,151.5998,209.5585,0,U,40367,999,4208,0,-.297E-5,0
MUOS-3,2015-002A,2026-06-25T09:06:16.442208,1.00270990,.00525015,4.5359,43.5548,177.8156,173.2680,0,U,40374,999,4166,0,-.123E-5,0
INMARSAT 5-F2,2015-005A,2026-06-25T08:54:55.029600,1.00272845,.00003212,0.0181,10.2642,353.1584,348.8042,0,U,40384,999,4107,0,-.276E-5,0
ABS-3A,2015-010A,2026-06-25T09:09:46.107360,1.00270912,.00017553,0.0418,53.0603,356.5554,358.3554,0,U,40424,999,4145,0,0,0
EUTELSAT 115 WEST B,2015-010B,2026-06-25T12:03:10.106784,1.00274275,.00002511,0.0131,149.0711,104.5713,85.8918,0,U,40425,999,4147,0,-.15E-6,0
EXPRESS-AM7,2015-012A,2026-06-25T12:47:19.674240,1.00275830,.00034981,0.0254,357.8742,109.5393,38.1191,0,U,40505,999,4109,0,0,0
BEIDOU-3S IGSO-1S,2015-019A,2026-06-24T19:23:47.913216,1.00249638,.00389179,49.1794,295.3695,191.3782,167.8940,0,U,40549,999,4114,0,-.178E-5,0
THOR 7,2015-022A,2026-06-25T07:27:47.771712,1.00271398,.00026271,0.0134,44.1070,44.8873,295.7425,0,U,40613,999,4089,0,.1E-7,0
TURKMENALEM52E/MONACOSAT,2015-023A,2026-06-25T09:25:22.111392,1.00275394,.0003078,0.0190,64.6510,26.1749,16.0949,0,U,40617,999,4093,0,.113E-5,0
DIRECTV 15,2015-026A,2026-06-25T12:06:39.771936,1.00270387,.00005307,0.0177,60.3943,338.1020,313.9308,0,U,40663,999,4054,0,-.92E-6,0
SKY MEXICO-1,2015-026B,2026-06-25T12:13:31.613952,1.00268983,.00026762,0.0256,359.1063,115.2462,263.8772,0,U,40664,999,4053,0,0,0
METEOSAT-11 (MSG-4),2015-034A,2026-06-25T07:30:39.997152,1.00265611,.00022842,3.2209,71.0582,347.1875,337.3344,0,U,40732,999,729,0,.69E-6,0
STAR ONE C4,2015-034B,2026-06-25T12:16:01.375392,1.00271419,.00021733,0.0270,326.2325,100.4190,321.0141,0,U,40733,999,4009,0,-.255E-5,0
WGS F7 (USA 263),2015-036A,2026-06-24T19:38:14.746272,1.00272289,.00003932,0.0408,52.4573,128.4598,201.5787,0,U,40746,999,3994,0,0,0
INTELSAT 34 (IS-34),2015-039A,2026-06-25T08:54:47.542176,1.00270119,.00004771,0.0077,354.3653,26.9885,330.3532,0,U,40874,999,3971,0,-.275E-5,0
EUTELSAT 8 WEST B,2015-039B,2026-06-25T09:08:23.737920,1.00271655,.00037778,0.0627,4.1046,86.4374,312.0769,0,U,40875,999,3973,0,-.56E-6,0
GSAT-6,2015-041A,2026-06-25T12:59:33.501408,1.00270887,.00031404,1.9401,82.4914,5.2490,103.3619,0,U,40880,999,3968,0,-.151E-5,0
INMARSAT 5-F3,2015-042A,2026-06-25T13:41:00.843360,1.00268087,.00004896,0.0188,23.8627,108.1069,166.5837,0,U,40882,999,3965,0,.6E-6,0
MUOS-4,2015-044A,2026-06-25T12:57:33.693120,1.00272277,.00578671,4.3455,42.2994,2.8629,137.8848,0,U,40887,999,3964,0,-.86E-6,0
TJS-1,2015-046A,2026-06-25T12:48:38.712096,1.00270840,.00058922,0.3452,84.9276,4.2516,171.6869,0,U,40892,999,3965,0,-.146E-5,0
EXPRESS-AM8,2015-048A,2026-06-25T09:06:38.906208,1.00271642,.00004545,0.0129,301.4202,99.8902,354.8682,0,U,40895,999,3942,0,-.102E-5,0
BEIDOU-3S IGSO-2S,2015-053A,2026-06-24T16:38:51.779040,1.00257917,.00655185,49.2082,258.6911,192.8467,165.7674,0,U,40938,999,3942,0,-.135E-5,0
SKY MUSTER 1 (NBN1A),2015-054A,2026-06-25T13:15:56.506176,1.00270060,.00020527,0.0231,349.6606,100.0271,163.2387,0,U,40940,999,3934,0,0,0
ARSAT 2,2015-054B,2026-06-25T12:12:54.174240,1.00271714,.00021363,0.0146,328.1644,116.1270,291.5797,0,U,40941,999,3938,0,-.215E-5,0
MORELOS 3,2015-056A,2026-06-25T12:03:40.059072,1.00271858,.00006856,3.1936,15.2821,3.8216,322.3507,0,U,40946,999,3936,0,-.36E-6,0
APSTAR-9,2015-059A,2026-06-25T13:47:20.713920,1.00269428,.00028153,0.0347,302.2734,234.9102,85.3413,0,U,40982,999,3920,0,-.256E-5,0
TURKSAT 4B,2015-060A,2026-06-25T12:50:11.898816,1.00271692,.00024677,0.0169,27.7610,62.1954,66.2058,0,U,40984,999,3918,0,.125E-5,0
ZHONGXING-2C,2015-063A,2026-06-24T18:16:15.495744,1.00268247,.00080171,0.2938,89.4168,95.8408,105.1164,0,U,41021,999,3905,0,-.314E-5,0
GSAT-15,2015-065A,2026-06-25T11:18:38.943648,1.00271503,.00045913,0.0510,263.7900,171.6597,101.3449,0,U,41028,999,3888,0,-.248E-5,0
BADR-7 (ARABSAT-6B),2015-065B,2026-06-25T12:43:20.056800,1.00272456,.00038792,0.0381,215.0630,340.8391,294.5679,0,U,41029,999,3885,0,.155E-5,0
